OBJECT_NAME,OBJECT_ID,EPOCH,MEAN_MOTION,ECCENTRICITY,INCLINATION,RA_OF_ASC_NODE,ARG_OF_PERICENTER,MEAN_ANOMALY,EPHEMERIS_TYPE,CLASSIFICATION_TYPE,NORAD_CAT_ID,ELEMENT_SET_NO,REV_AT_EPOCH,BSTAR,MEAN_MOTION_DOT,MEAN_MOTION_DDOT
STARLINK-5247,2022-141AY,2026-07-15T04:00:03.000096,15.15456387,.0002847,53.1609,141.2906,93.0593,23.0474,0,U,54203,999,579,.18205E-2,.34703E-3,0
STARLINK-5241,2022-141AZ,2026-07-15T04:00:03.000096,15.13266556,.0002429,53.1607,141.1161,67.5527,136.2935,0,U,54204,999,583,.21513E-2,.38615E-3,0
STARLINK-5249,2022-141BA,2026-07-15T04:58:05.049696,15.08827631,.0001349,53.1598,141.0568,87.4953,272.6193,0,U,54205,999,20525,-.14578E-4,-.52E-5,0
STARLINK-5264,2022-141BB,2026-07-15T00:29:50.530272,15.08836512,.0001388,53.1606,107.0861,92.5732,267.5418,0,U,54206,999,20571,.14567E-4,-.56E-6,0
STARLINK-5262,2022-141BC,2026-07-15T04:52:47.248032,15.08841144,.0001264,53.1600,141.0335,87.6244,272.4892,0,U,54207,999,20525,.52859E-4,.553E-5,0
STARLINK-5255,2022-141BD,2026-07-15T04:00:03.000096,15.24655812,.0001471,53.1612,116.0507,108.4804,154.5254,0,U,54208,999,573,.29283E-2,.73664E-3,0
STARLINK-5259,2022-141BE,2026-07-15T04:59:24.880704,15.08830174,.0001414,53.1600,131.0646,88.3192,271.7962,0,U,54209,999,20539,.10873E-4,-.115E-5,0
STARLINK-5464,2022-175A,2026-07-15T04:00:03.000096,15.29366034,.0001188,53.1590,185.5966,87.5611,78.0193,0,U,54758,999,573,-.67171E-3,-.19693E-3,0
STARLINK-5215,2022-175B,2026-07-15T04:00:03.000096,15.31721652,.0001996,53.1610,185.2524,105.0036,235.6713,0,U,54759,999,568,-.66039E-3,-.20816E-3,0
STARLINK-5220,2022-175C,2026-07-15T04:25:03.294624,15.08835899,.0001178,53.1602,191.6997,69.3082,290.8035,0,U,54760,999,19916,.13402E-4,-.75E-6,0
STARLINK-5202,2022-175D,2026-07-15T04:00:03.000096,15.26508508,.0001433,53.1627,191.0985,90.7001,168.3850,0,U,54761,999,568,-.9905E-3,-.26455E-3,0
STARLINK-5214,2022-175E,2026-07-15T04:00:03.000096,15.31712290,.0001387,53.1605,188.3006,85.2183,174.2495,0,U,54762,999,580,-.57762E-3,-.18253E-3,0
STARLINK-5191,2022-175F,2026-07-15T04:19:46.820064,15.08809800,.0001613,53.1605,191.6777,77.1260,282.9911,0,U,54763,999,19916,-.14456E-3,-.2586E-4,0
STARLINK-5458,2022-175G,2026-07-15T04:00:03.000096,15.19095881,.0002671,53.1606,191.3128,77.1395,69.8222,0,U,54764,999,553,.30185E-3,.6098E-4,0
STARLINK-5471,2022-175J,2026-07-15T03:58:31.696032,15.08834010,.0001138,53.1597,191.5856,82.7850,277.3271,0,U,54766,999,19916,-.3125E-4,-.785E-5,0
STARLINK-5472,2022-175K,2026-07-15T03:53:13.339680,15.08838082,.0001108,53.1590,191.5623,88.9160,271.1959,0,U,54767,999,19916,.54797E-5,-.201E-5,0
STARLINK-5444,2022-175L,2026-07-15T02:53:46.194720,15.31712529,.0001344,53.1628,173.5558,81.8248,278.2905,0,U,54768,999,19941,-.1908E-3,-.6283E-4,0
STARLINK-5448,2022-175N,2026-07-15T03:13:45.978816,15.34353586,.0001183,53.1621,172.9368,88.4408,271.6730,0,U,54770,999,19942,-.12657E-3,-.4644E-4,0
STARLINK-5451,2022-175P,2026-07-15T04:11:37.471200,15.26517446,.0001276,53.1646,185.2643,90.5267,269.5879,0,U,54771,999,19925,.55434E-4,.1122E-4,0
STARLINK-5452,2022-175Q,2026-07-15T04:00:03.000096,15.35405110,.000154,53.1605,174.7872,80.6010,151.2943,0,U,54772,999,583,-.40735E-3,-.14565E-3,0
STARLINK-5453,2022-175R,2026-07-15T04:00:03.000096,15.14401490,.0001263,53.1599,191.4067,44.9314,50.7211,0,U,54773,999,568,.41525E-3,.7417E-4,0
STARLINK-5454,2022-175S,2026-07-15T04:00:03.000096,15.33958543,.0001282,53.1670,174.6943,112.3694,167.3417,0,U,54774,999,578,.16277E-1,.578915E-2,0
STARLINK-5465,2022-175T,2026-07-15T04:00:03.000096,15.14719363,.0001384,53.1603,191.3626,48.3402,71.0988,0,U,54775,999,583,.47358E-3,.8582E-4,0
STARLINK-5470,2022-175U,2026-07-15T04:00:03.000096,15.12431117,.0002827,53.1599,191.1722,57.4581,159.5335,0,U,54776,999,558,.6422E-3,.11007E-3,0
STARLINK-5468,2022-175V,2026-07-15T04:00:03.000096,15.17936873,.000137,53.1598,191.2199,78.9756,113.7850,0,U,54777,999,583,.61287E-3,.12297E-3,0
STARLINK-5450,2022-175W,2026-07-15T04:08:57.815232,15.34394497,.0001254,53.1605,174.5727,72.1881,287.9258,0,U,54778,999,19940,.10686E-3,.3235E-4,0
STARLINK-5447,2022-175X,2026-07-15T04:00:03.000096,15.35402277,.0001446,53.1594,174.5684,97.9310,245.5055,0,U,54779,999,578,-.46317E-3,-.16503E-3,0
STARLINK-5449,2022-175Y,2026-07-15T04:00:03.000096,15.35407189,.000148,53.1594,174.5830,91.1160,241.6828,0,U,54780,999,553,-.51604E-3,-.18342E-3,0
STARLINK-5443,2022-175Z,2026-07-15T04:00:03.000096,15.35416434,.0001034,53.1600,174.4221,90.4819,324.2178,0,U,54781,999,573,-.54531E-3,-.19363E-3,0
STARLINK-5439,2022-175AB,2026-07-15T04:21:00.575424,15.31700203,.0001035,53.1609,173.2219,86.2462,273.8658,0,U,54783,999,19942,.20498E-4,.271E-5,0
