STARLINK-5247           
1 54203U 22141AY  26196.16670139  .00034703  00000+0  18205-2 0  9995
2 54203  53.1609 141.2906 0002847  93.0593  23.0474 15.15456387  5799
STARLINK-5241           
1 54204U 22141AZ  26196.16670139  .00038615  00000+0  21513-2 0  9998
2 54204  53.1607 141.1161 0002429  67.5527 136.2935 15.13266556  5838
STARLINK-5249           
1 54205U 22141BA  26196.20700289 -.00000520  00000+0 -14578-4 0  9995
2 54205  53.1598 141.0568 0001349  87.4953 272.6193 15.08827631205252
STARLINK-5264           
1 54206U 22141BB  26196.02072373 -.00000056  00000+0  14567-4 0  9993
2 54206  53.1606 107.0861 0001388  92.5732 267.5418 15.08836512205718
STARLINK-5262           
1 54207U 22141BC  26196.20332463  .00000553  00000+0  52859-4 0  9990
2 54207  53.1600 141.0335 0001264  87.6244 272.4892 15.08841144205250
STARLINK-5255           
1 54208U 22141BD  26196.16670139  .00073664  00000+0  29283-2 0  9997
2 54208  53.1612 116.0507 0001471 108.4804 154.5254 15.24655812  5737
STARLINK-5259           
1 54209U 22141BE  26196.20792686 -.00000115  00000+0  10873-4 0  9994
2 54209  53.1600 131.0646 0001414  88.3192 271.7962 15.08830174205399
STARLINK-5464           
1 54758U 22175A   26196.16670139 -.00019693  00000+0 -67171-3 0  9997
2 54758  53.1590 185.5966 0001188  87.5611  78.0193 15.29366034  5732
STARLINK-5215           
1 54759U 22175B   26196.16670139 -.00020816  00000+0 -66039-3 0  9999
2 54759  53.1610 185.2524 0001996 105.0036 235.6713 15.31721652  5684
STARLINK-5220           
1 54760U 22175C   26196.18406591 -.00000075  00000+0  13402-4 0  9993
2 54760  53.1602 191.6997 0001178  69.3082 290.8035 15.08835899199167
STARLINK-5202           
1 54761U 22175D   26196.16670139 -.00026455  00000+0 -99050-3 0  9996
2 54761  53.1627 191.0985 0001433  90.7001 168.3850 15.26508508  5680
STARLINK-5214           
1 54762U 22175E   26196.16670139 -.00018253  00000+0 -57762-3 0  9998
2 54762  53.1605 188.3006 0001387  85.2183 174.2495 15.31712290  5804
STARLINK-5191           
1 54763U 22175F   26196.18040301 -.00002586  00000+0 -14456-3 0  9998
2 54763  53.1605 191.6777 0001613  77.1260 282.9911 15.08809800199166
STARLINK-5458           
1 54764U 22175G   26196.16670139  .00006098  00000+0  30185-3 0  9992
2 54764  53.1606 191.3128 0002671  77.1395  69.8222 15.19095881  5531
STARLINK-5471           
1 54766U 22175J   26196.16564463 -.00000785  00000+0 -31250-4 0  9990
2 54766  53.1597 191.5856 0001138  82.7850 277.3271 15.08834010199163
STARLINK-5472           
1 54767U 22175K   26196.16195995 -.00000201  00000+0  54797-5 0  9995
2 54767  53.1590 191.5623 0001108  88.9160 271.1959 15.08838082199166
STARLINK-5444           
1 54768U 22175L   26196.12067355 -.00006283  00000+0 -19080-3 0  9991
2 54768  53.1628 173.5558 0001344  81.8248 278.2905 15.31712529199417
STARLINK-5448           
1 54770U 22175N   26196.13455994 -.00004644  00000+0 -12657-3 0  9997
2 54770  53.1621 172.9368 0001183  88.4408 271.6730 15.34353586199428
STARLINK-5451           
1 54771U 22175P   26196.17473925  .00001122  00000+0  55434-4 0  9993
2 54771  53.1646 185.2643 0001276  90.5267 269.5879 15.26517446199258
STARLINK-5452           
1 54772U 22175Q   26196.16670139 -.00014565  00000+0 -40735-3 0  9993
2 54772  53.1605 174.7872 0001540  80.6010 151.2943 15.35405110  5834
STARLINK-5453           
1 54773U 22175R   26196.16670139  .00007417  00000+0  41525-3 0  9998
2 54773  53.1599 191.4067 0001263  44.9314  50.7211 15.14401490  5689
STARLINK-5454           
1 54774U 22175S   26196.16670139  .00578915  00000+0  16277-1 0  9999
2 54774  53.1670 174.6943 0001282 112.3694 167.3417 15.33958543  5789
STARLINK-5465           
1 54775U 22175T   26196.16670139  .00008582  00000+0  47358-3 0  9994
2 54775  53.1603 191.3626 0001384  48.3402  71.0988 15.14719363  5832
STARLINK-5470           
1 54776U 22175U   26196.16670139  .00011007  00000+0  64220-3 0  9998
2 54776  53.1599 191.1722 0002827  57.4581 159.5335 15.12431117  5580
STARLINK-5468           
1 54777U 22175V   26196.16670139  .00012297  00000+0  61287-3 0  9991
2 54777  53.1598 191.2199 0001370  78.9756 113.7850 15.17936873  5839
STARLINK-5450           
1 54778U 22175W   26196.17289138  .00003235  00000+0  10686-3 0  9997
2 54778  53.1605 174.5727 0001254  72.1881 287.9258 15.34394497199408
STARLINK-5447           
1 54779U 22175X   26196.16670139 -.00016503  00000+0 -46317-3 0  9996
2 54779  53.1594 174.5684 0001446  97.9310 245.5055 15.35402277  5782
STARLINK-5449           
1 54780U 22175Y   26196.16670139 -.00018342  00000+0 -51604-3 0  9996
2 54780  53.1594 174.5830 0001480  91.1160 241.6828 15.35407189  5539
STARLINK-5443           
1 54781U 22175Z   26196.16670139 -.00019363  00000+0 -54531-3 0  9993
2 54781  53.1600 174.4221 0001034  90.4819 324.2178 15.35416434  5730
STARLINK-5439           
1 54783U 22175AB  26196.18125666  .00000271  00000+0  20498-4 0  9999
2 54783  53.1609 173.2219 0001035  86.2462 273.8658 15.31700203199421
